start=new Date('2023-04-24T00:00:00.000Z').valueOf();
sats=[{"MEAN_ELEMENT_THEORY":"SGP4","REV_AT_EPOCH":"5567","TIME_SYSTEM":"UTC","REF_FRAME":"TEME","ELEMENT_SET_NO":"999","TLE_LINE2":"2 52265  53.2136 147.9080 0001303  86.2804 273.8337 15.08838560 55676","EPOCH":"2023-04-23T12:58:51.593088","RCS_SIZE":"LARGE","COUNTRY_CODE":"US","LAUNCH_DATE":"2022-04-21","ECCENTRICITY":"0.00013030","CENTER_NAME":"EARTH","NORAD_CAT_ID":"52265","BSTAR":"0.00006250200000","GP_ID":"230632236","CLASSIFICATION_TYPE":"U","ARG_OF_PERICENTER":"86.2804","MEAN_MOTION_DOT":"0.00000707","SEMIMAJOR_AXIS":"6917.885","RA_OF_ASC_NODE":"147.9080","OBJECT_TYPE":"PAYLOAD","APOAPSIS":"540.651","OBJECT_ID":"2022-041E","DECAY_DATE":null,"MEAN_ANOMALY":"273.8337","TLE_LINE1":"1 52265U 22041E   23113.54087492  .00000707  00000-0  62502-4 0  9991","INCLINATION":"53.2136","SITE":"AFETR","PERIAPSIS":"538.848","MEAN_MOTION_DDOT":"0.0000000000000","FILE":"3892688","OBJECT_NAME":"STARLINK-3740","EPHEMERIS_TYPE":"0","PERIOD":"95.438","MEAN_MOTION":"15.08838560"},{"GP_ID":"230661178","CLASSIFICATION_TYPE":"U","MEAN_MOTION_DOT":"0.00001274","ARG_OF_PERICENTER":"105.0103","ECCENTRICITY":"0.00012900","CENTER_NAME":"EARTH","NORAD_CAT_ID":"52266","BSTAR":"0.00009811200000","OBJECT_TYPE":"PAYLOAD","APOAPSIS":"540.649","OBJECT_ID":"2022-041F","DECAY_DATE":null,"SEMIMAJOR_AXIS":"6917.892","RA_OF_ASC_NODE":"147.6286","MEAN_MOTION_DDOT":"0.0000000000000","OBJECT_NAME":"STARLINK-3739","FILE":"3892831","EPHEMERIS_TYPE":"0","MEAN_ANOMALY":"255.1032","SITE":"AFETR","TLE_LINE1":"1 52266U 22041F   23113.60343598  .00001274  00000-0  98112-4 0  9997","INCLINATION":"53.2145","PERIAPSIS":"538.864","PERIOD":"95.438","MEAN_MOTION":"15.08836337","MEAN_ELEMENT_THEORY":"SGP4","REV_AT_EPOCH":"5568","TIME_SYSTEM":"UTC","ELEMENT_SET_NO":"999","TLE_LINE2":"2 52266  53.2145 147.6286 0001290 105.0103 255.1032 15.08836337 55685","EPOCH":"2023-04-23T14:28:56.868672","REF_FRAME":"TEME","LAUNCH_DATE":"2022-04-21","COUNTRY_CODE":"US","RCS_SIZE":"LARGE"},{"TLE_LINE2":"2 52267  53.2153 146.7516 0001227  90.7334 269.3799 15.08841468 55719","EPOCH":"2023-04-23T19:09:48.210624","ELEMENT_SET_NO":"999","REF_FRAME":"TEME","LAUNCH_DATE":"2022-04-21","COUNTRY_CODE":"US","RCS_SIZE":"LARGE","MEAN_ELEMENT_THEORY":"SGP4","TIME_SYSTEM":"UTC","REV_AT_EPOCH":"5571","EPHEMERIS_TYPE":"0","FILE":"3892831","OBJECT_NAME":"STARLINK-3748","MEAN_MOTION_DDOT":"0.0000000000000","PERIAPSIS":"538.892","TLE_LINE1":"1 52267U 22041G   23113.79847466  .00001692  00000-0  12439-3 0  9992","SITE":"AFETR","INCLINATION":"53.2153","MEAN_ANOMALY":"269.3799","MEAN_MOTION":"15.08841468","PERIOD":"95.437","MEAN_MOTION_DOT":"0.00001692","ARG_OF_PERICENTER":"90.7334","CLASSIFICATION_TYPE":"U","GP_ID":"230661424","BSTAR":"0.00012439000000","NORAD_CAT_ID":"52267","CENTER_NAME":"EARTH","ECCENTRICITY":"0.00012270","OBJECT_ID":"2022-041G","DECAY_DATE":null,"OBJECT_TYPE":"PAYLOAD","APOAPSIS":"540.590","RA_OF_ASC_NODE":"146.7516","SEMIMAJOR_AXIS":"6917.876"},{"ECCENTRICITY":"0.00013930","CENTER_NAME":"EARTH","NORAD_CAT_ID":"52268","BSTAR":"0.00008394900000","GP_ID":"230660677","CLASSIFICATION_TYPE":"U","MEAN_MOTION_DOT":"0.00001048","ARG_OF_PERICENTER":"79.4150","SEMIMAJOR_AXIS":"6917.877","RA_OF_ASC_NODE":"146.8061","OBJECT_TYPE":"PAYLOAD","APOAPSIS":"540.705","DECAY_DATE":null,"OBJECT_ID":"2022-041H","MEAN_ANOMALY":"280.6999","TLE_LINE1":"1 52268U 22041H   23113.78839056  .00001048  00000-0  83949-4 0  9998","SITE":"AFETR","INCLINATION":"53.2159","PERIAPSIS":"538.778","MEAN_MOTION_DDOT":"0.0000000000000","OBJECT_NAME":"STARLINK-3746","FILE":"3892831","EPHEMERIS_TYPE":"0","PERIOD":"95.437","MEAN_MOTION":"15.08841254","MEAN_ELEMENT_THEORY":"SGP4","REV_AT_EPOCH":"5571","TIME_SYSTEM":"UTC","REF_FRAME":"TEME","ELEMENT_SET_NO":"999","TLE_LINE2":"2 52268  53.2159 146.8061 0001393  79.4150 280.6999 15.08841254 55717","EPOCH":"2023-04-23T18:55:16.944384","RCS_SIZE":"LARGE","COUNTRY_CODE":"US","LAUNCH_DATE":"2022-04-21"},{"COUNTRY_CODE":"US","LAUNCH_DATE":"2022-04-21","RCS_SIZE":"LARGE","ELEMENT_SET_NO":"999","EPOCH":"2023-04-23T19:04:30.002880","TLE_LINE2":"2 52269  53.2159 146.7668 0001234  93.2645 266.8488 15.08839798 55716","REF_FRAME":"TEME","TIME_SYSTEM":"UTC","REV_AT_EPOCH":"5571","MEAN_ELEMENT_THEORY":"SGP4","MEAN_MOTION":"15.08839798","PERIOD":"95.438","FILE":"3892831","EPHEMERIS_TYPE":"0","OBJECT_NAME":"STARLINK-3791","MEAN_MOTION_DDOT":"0.0000000000000","PERIAPSIS":"538.892","MEAN_ANOMALY":"266.8488","INCLINATION":"53.2159","TLE_LINE1":"1 52269U 22041J   23113.79479170  .00000725  00000-0  63608-4 0  9998","SITE":"AFETR","DECAY_DATE":null,"OBJECT_ID":"2022-041J","OBJECT_TYPE":"PAYLOAD","APOAPSIS":"540.600","RA_OF_ASC_NODE":"146.7668","SEMIMAJOR_AXIS":"6917.881","MEAN_MOTION_DOT":"0.00000725","ARG_OF_PERICENTER":"93.2645","GP_ID":"230660428","CLASSIFICATION_TYPE":"U","BSTAR":"0.00006360800000","ECCENTRICITY":"0.00012340","CENTER_NAME":"EARTH","NORAD_CAT_ID":"52269"},{"BSTAR":"-0.00002226200000","NORAD_CAT_ID":"52270","CENTER_NAME":"EARTH","ECCENTRICITY":"0.00013970","ARG_OF_PERICENTER":"120.7368","MEAN_MOTION_DOT":"-0.00000642","CLASSIFICATION_TYPE":"U","GP_ID":"230661679","RA_OF_ASC_NODE":"146.8315","SEMIMAJOR_AXIS":"6917.864","DECAY_DATE":null,"OBJECT_ID":"2022-041K","APOAPSIS":"540.696","OBJECT_TYPE":"PAYLOAD","PERIAPSIS":"538.763","INCLINATION":"53.2167","TLE_LINE1":"1 52270U 22041K   23113.78743437 -.00000642  00000-0 -22262-4 0  9990","SITE":"AFETR","MEAN_ANOMALY":"239.3762","FILE":"3892831","EPHEMERIS_TYPE":"0","OBJECT_NAME":"STARLINK-3804","MEAN_MOTION_DDOT":"0.0000000000000","MEAN_MOTION":"15.08845264","PERIOD":"95.437","MEAN_ELEMENT_THEORY":"SGP4","REV_AT_EPOCH":"5571","TIME_SYSTEM":"UTC","REF_FRAME":"TEME","TLE_LINE2":"2 52270  53.2167 146.8315 0001397 120.7368 239.3762 15.08845264 55710","EPOCH":"2023-04-23T18:53:54.329568","ELEMENT_SET_NO":"999","RCS_SIZE":"LARGE","COUNTRY_CODE":"US","LAUNCH_DATE":"2022-04-21"},{"REV_AT_EPOCH":"5571","TIME_SYSTEM":"UTC","MEAN_ELEMENT_THEORY":"SGP4","RCS_SIZE":"LARGE","LAUNCH_DATE":"2022-04-21","COUNTRY_CODE":"US","REF_FRAME":"TEME","ELEMENT_SET_NO":"999","TLE_LINE2":"2 52271  53.2155 146.7810 0001732  95.9706 264.1483 15.08841959 55712","EPOCH":"2023-04-23T18:59:12.122592","SEMIMAJOR_AXIS":"6917.874","RA_OF_ASC_NODE":"146.7810","OBJECT_TYPE":"PAYLOAD","APOAPSIS":"540.938","DECAY_DATE":null,"OBJECT_ID":"2022-041L","ECCENTRICITY":"0.00017320","CENTER_NAME":"EARTH","NORAD_CAT_ID":"52271","BSTAR":"0.00011641000000","GP_ID":"230661925","CLASSIFICATION_TYPE":"U","MEAN_MOTION_DOT":"0.00001565","ARG_OF_PERICENTER":"95.9706","PERIOD":"95.437","MEAN_MOTION":"15.08841959","MEAN_ANOMALY":"264.1483","TLE_LINE1":"1 52271U 22041L   23113.79111253  .00001565  00000-0  11641-3 0  9998","INCLINATION":"53.2155","SITE":"AFETR","PERIAPSIS":"538.541","MEAN_MOTION_DDOT":"0.0000000000000","OBJECT_NAME":"STARLINK-3788","FILE":"3892831","EPHEMERIS_TYPE":"0"},{"TIME_SYSTEM":"UTC","REV_AT_EPOCH":"5571","MEAN_ELEMENT_THEORY":"SGP4","COUNTRY_CODE":"US","LAUNCH_DATE":"2022-04-21","RCS_SIZE":"LARGE","EPOCH":"2023-04-23T18:43:18.253632","TLE_LINE2":"2 52272  53.2160 146.8221 0001240  75.7238 284.3892 15.08836901 55715","ELEMENT_SET_NO":"999","REF_FRAME":"TEME","OBJECT_TYPE":"PAYLOAD","APOAPSIS":"540.613","OBJECT_ID":"2022-041M","DECAY_DATE":null,"SEMIMAJOR_AXIS":"6917.890","RA_OF_ASC_NODE":"146.8221","CLASSIFICATION_TYPE":"U","GP_ID":"230660178","MEAN_MOTION_DOT":"-0.00000345","ARG_OF_PERICENTER":"75.7238","NORAD_CAT_ID":"52272","ECCENTRICITY":"0.00012400","CENTER_NAME":"EARTH","BSTAR":"-0.00000359890000","PERIOD":"95.438","MEAN_MOTION":"15.08836901","MEAN_MOTION_DDOT":"0.0000000000000","FILE":"3892831","OBJECT_NAME":"STARLINK-3781","EPHEMERIS_TYPE":"0","INCLINATION":"53.2160","TLE_LINE1":"1 52272U 22041M   23113.78007238 -.00000345  00000-0 -35989-5 0  9995","SITE":"AFETR","MEAN_ANOMALY":"284.3892","PERIAPSIS":"538.897"},{"PERIOD":"95.437","MEAN_MOTION":"15.08842288","TLE_LINE1":"1 52273U 22041N   23113.55278502 -.00000537  00000-0 -15652-4 0  9992","SITE":"AFETR","INCLINATION":"53.2155","MEAN_ANOMALY":"270.3387","PERIAPSIS":"539.098","MEAN_MOTION_DDOT":"0.0000000000000","OBJECT_NAME":"STARLINK-3782","FILE":"3892831","EPHEMERIS_TYPE":"0","SEMIMAJOR_AXIS":"6917.873","RA_OF_ASC_NODE":"137.4979","OBJECT_TYPE":"PAYLOAD","APOAPSIS":"540.379","OBJECT_ID":"2022-041N","DECAY_DATE":null,"NORAD_CAT_ID":"52273","ECCENTRICITY":"0.00009260","CENTER_NAME":"EARTH","BSTAR":"-0.00001565200000","CLASSIFICATION_TYPE":"U","GP_ID":"230660928","ARG_OF_PERICENTER":"89.7712","MEAN_MOTION_DOT":"-0.00000537","RCS_SIZE":"LARGE","COUNTRY_CODE":"US","LAUNCH_DATE":"2022-04-21","REF_FRAME":"TEME","EPOCH":"2023-04-23T13:16:00.625728","TLE_LINE2":"2 52273  53.2155 137.4979 0000926  89.7712 270.3387 15.08842288 55829","ELEMENT_SET_NO":"999","TIME_SYSTEM":"UTC","REV_AT_EPOCH":"5582","MEAN_ELEMENT_THEORY":"SGP4"},{"RA_OF_ASC_NODE":"147.7419","SEMIMAJOR_AXIS":"6917.870","DECAY_DATE":null,"OBJECT_ID":"2022-041P","OBJECT_TYPE":"PAYLOAD","APOAPSIS":"540.426","BSTAR":"0.00009152800000","CENTER_NAME":"EARTH","ECCENTRICITY":"0.00009990","NORAD_CAT_ID":"52274","ARG_OF_PERICENTER":"154.4939","MEAN_MOTION_DOT":"0.00001169","GP_ID":"230661179","CLASSIFICATION_TYPE":"U","MEAN_MOTION":"15.08843445","PERIOD":"95.437","PERIAPSIS":"539.044","MEAN_ANOMALY":"205.6103","SITE":"AFETR","TLE_LINE1":"1 52274U 22041P   23113.57766568  .00001169  00000-0  91528-4 0  9995","INCLINATION":"53.2144","OBJECT_NAME":"STARLINK-3790","FILE":"3892831","EPHEMERIS_TYPE":"0","MEAN_MOTION_DDOT":"0.0000000000000","REV_AT_EPOCH":"5568","TIME_SYSTEM":"UTC","MEAN_ELEMENT_THEORY":"SGP4","RCS_SIZE":"LARGE","COUNTRY_CODE":"US","LAUNCH_DATE":"2022-04-21","REF_FRAME":"TEME","ELEMENT_SET_NO":"999","TLE_LINE2":"2 52274  53.2144 147.7419 0000999 154.4939 205.6103 15.08843445 55689","EPOCH":"2023-04-23T13:51:50.314752"}];
